NORAD_CAT_ID,OBJECT_NAME,OBJECT_TYPE,EPOCH,MEAN_MOTION,ECCENTRICITY,INCLINATION,RA_OF_ASC_NODE,ARG_OF_PERICENTER,MEAN_ANOMALY,BSTAR,MEAN_MOTION_DOT,MEAN_MOTION_DDOT,TLE_LINE0,TLE_LINE1,TLE_LINE2,SEMIMAJOR_AXIS,PERIOD,APOGEE,PERIGEE,DECAYED
55408.0,STARLINK-5092,PAYLOAD,2024-03-17 03:53:07,14.98326517,0.0002949,69.9988,86.375,266.7603,93.3218,2.4527e-05,2e-06,0.0,0 STARLINK-5092,1 55408U 23014T   24077.16188961  .00000200  00000-0  24527-4 0  9998,2 55408  69.9988  86.3750 0002949 266.7603  93.3218 14.98326517 62882,6950.204,96.107,574.118,570.019,0.0
55408.0,STARLINK-5092,PAYLOAD,2024-03-17 10:17:39,14.98326681,0.0002947,69.9989,85.7018,266.9972,93.085,2.4417e-05,1.98e-06,0.0,0 STARLINK-5092,1 55408U 23014T   24077.42893006  .00000198  00000-0  24417-4 0  9994,2 55408  69.9989  85.7018 0002947 266.9972  93.0850 14.98326681 63862,6950.203,96.107,574.116,570.02,0.0
55408.0,STARLINK-5092,PAYLOAD,2024-03-18 03:55:15,14.98237228,0.0002687,69.9988,83.8502,265.8571,94.2281,-0.0010146,-0.00012149,0.0,0 STARLINK-5092,1 55408U 23014T   24078.16337323 -.00012149  00000-0 -10146-2 0  9994,2 55408  69.9988  83.8502 0002687 265.8571  94.2281 14.98237228 63030,6950.48,96.113,574.212,570.477,0.0
55408.0,STARLINK-5092,PAYLOAD,2024-03-18 10:19:59,14.98098072,0.0003546,69.999,83.1771,251.0294,109.0481,-0.0024807,-0.00029393,0.0,0 STARLINK-5092,1 55408U 23014T   24078.43055264 -.00029393  00000-0 -24807-2 0  9993,2 55408  69.9990  83.1771 0003546 251.0294 109.0481 14.98098072 63071,6950.91,96.122,575.24,570.31,0.0
55408.0,STARLINK-5092,PAYLOAD,2024-03-19 02:21:59,14.97747588,0.0003849,70.0006,81.5056,284.7345,75.3387,-0.0058245,-0.00067898,0.0,0 STARLINK-5092,1 55408U 23014T   24079.09860582 -.00067898  00000-0 -58245-2 0  9998,2 55408  70.0006  81.5056 0003849 284.7345  75.3387 14.97747588 63179,6951.995,96.144,576.535,571.184,0.0
55408.0,STARLINK-5092,PAYLOAD,2024-03-19 10:23:09,14.97503849,0.0002887,69.9989,80.6551,271.4769,88.6058,-0.0079233,-0.00091438,0.0,0 STARLINK-5092,1 55408U 23014T   24079.43274945 -.00091438  00000-0 -79233-2 0  9995,2 55408  69.9989  80.6551 0002887 271.4769  88.6058 14.97503849 64162,6952.749,96.16,576.621,572.607,0.0
55408.0,STARLINK-5092,PAYLOAD,2024-03-19 22:00:00,14.96684835,0.0002936,70.0008,79.4359,267.0465,181.6913,0.0048184,0.00055454,0.0,0 STARLINK-5092,1 55408U 23014T   24079.91667824  .00055454  00000-0  48184-2 0  9997,2 55408  70.0008  79.4359 0002936 267.0465 181.6913 14.96684835 63301,6955.285,96.213,579.192,575.108,0.0
55408.0,STARLINK-5092,PAYLOAD,2024-03-20 02:00:01,14.96725988,0.0002998,70.001,79.0166,268.2333,358.2491,-0.0023535,-0.00026933,0.0,0 STARLINK-5092,1 55408U 23014T   24080.08334491 -.00026933  00000-0 -23535-2 0  9993,2 55408  70.0010  79.0166 0002998 268.2333 358.2491 14.96725988 63321,6955.158,96.21,579.108,574.937,0.0
55408.0,STARLINK-5092,PAYLOAD,2024-03-20 14:00:01,14.967288,0.0002929,70.0004,77.7591,273.8945,165.8877,-0.0037929,-0.00043251,0.0,0 STARLINK-5092,1 55408U 23014T   24080.58334491 -.00043251  00000-0 -37929-2 0  9992,2 55408  70.0004  77.7591 0002929 273.8945 165.8877 14.96728800  5799,6955.149,96.21,579.051,574.977,0.0
55408.0,STARLINK-5092,PAYLOAD,2024-03-20 22:00:00,14.96689851,0.000294,70.0006,76.9207,266.8646,168.4701,0.0049999,0.00057572,0.0,0 STARLINK-5092,1 55408U 23014T   24080.91667824  .00057572  00000-0  49999-2 0  9997,2 55408  70.0006  76.9207 0002940 266.8646 168.4701 14.96689851 63442,6955.27,96.212,579.179,575.09,0.0
55408.0,STARLINK-5092,PAYLOAD,2024-03-21 14:00:01,14.96729221,0.0002873,70.0003,75.2436,272.4133,154.014,0.00029685,3.309e-05,0.0,0 STARLINK-5092,1 55408U 23014T   24081.58334491  .00003309  00000-0  29685-3 0  9992,2 55408  70.0003  75.2436 0002873 272.4133 154.0140 14.96729221 63549,6955.148,96.21,579.011,575.014,0.0
55408.0,STARLINK-5092,PAYLOAD,2024-03-21 22:00:01,14.96672491,0.0002722,70.0005,74.4053,264.6788,157.3821,0.037957,0.00459016,0.0,0 STARLINK-5092,1 55408U 23014T   24081.91668981  .00459016  00000-0  37957-1 0  9992,2 55408  70.0005  74.4053 0002722 264.6788 157.3821 14.96672491 63592,6955.323,96.213,579.082,575.295,0.0
55408.0,STARLINK-5092,PAYLOAD,2024-03-22 14:00:01,14.97291771,0.0002819,70.0003,72.7276,271.6742,142.0737,0.03808,0.00468401,0.0,0 STARLINK-5092,1 55408U 23014T   24082.58335648  .00468401  00000-0  38080-1 0  9993,2 55408  70.0003  72.7276 0002819 271.6742 142.0737 14.97291771 63690,6953.405,96.174,577.231,573.31,0.0
55408.0,STARLINK-5092,PAYLOAD,2024-03-22 22:00:00,14.97588597,0.0002875,70.0006,71.8883,264.9625,145.1396,0.04439,0.00550133,0.0,0 STARLINK-5092,1 55408U 23014T   24082.91667824  .00550133  00000-0  44390-1 0  9999,2 55408  70.0006  71.8883 0002875 264.9625 145.1396 14.97588597  5847,6952.487,96.155,576.35,572.353,0.0
55408.0,STARLINK-5092,PAYLOAD,2024-03-23 06:00:00,14.97936229,0.0002883,70.0006,71.0485,270.69,136.2175,0.038542,0.00482851,0.0,0 STARLINK-5092,1 55408U 23014T   24083.25001157  .00482851  00000-0  38542-1 0  9991,2 55408  70.0006  71.0485 0002883 270.6900 136.2175 14.97936229 63799,6951.411,96.132,575.28,571.272,0.0
55408.0,STARLINK-5092,PAYLOAD,2024-03-23 14:00:01,14.98334701,0.0002877,70.0005,70.2082,272.2094,131.8821,-0.0031694,-0.00037711,0.0,0 STARLINK-5092,1 55408U 23014T   24083.58334491 -.00037711  00000-0 -31694-2 0  9992,2 55408  70.0005  70.2082 0002877 272.2094 131.8821 14.98334701 63840,6950.178,96.107,574.043,570.044,0.0
55408.0,STARLINK-5092,PAYLOAD,2024-03-23 22:00:00,14.98307782,0.0002937,70.0009,69.3679,265.7143,135.8505,0.0034451,0.00041232,0.0,0 STARLINK-5092,1 55408U 23014T   24083.91667824  .00041232  00000-0  34451-2 0  9993,2 55408  70.0009  69.3679 0002937 265.7143 135.8505 14.98307782  5741,6950.262,96.108,574.168,570.085,0.0
55408.0,STARLINK-5092,PAYLOAD,2024-03-24 04:00:00,14.98330047,0.0003048,70.0009,68.7375,272.5133,37.1842,-0.0019416,-0.00023184,0.0,0 STARLINK-5092,1 55408U 23014T   24084.16667824 -.00023184  00000-0 -19416-2 0  9993,2 55408  70.0009  68.7375 0003048 272.5133  37.1842 14.98330047 63939,6950.193,96.107,574.176,569.939,0.0
55408.0,STARLINK-5092,PAYLOAD,2024-03-24 14:00:01,14.98341941,0.0002943,70.0008,67.6868,275.1254,121.402,-0.0028123,-0.00033499,0.0,0 STARLINK-5092,1 55408U 23014T   24084.58334491 -.00033499  00000-0 -28123-2 0  9995,2 55408  70.0008  67.6868 0002943 275.1254 121.4020 14.98341941  5845,6950.156,96.106,574.066,569.976,0.0
55408.0,STARLINK-5092,PAYLOAD,2024-03-24 22:00:00,14.98322659,0.0002969,70.0012,66.8465,269.4507,124.5574,0.0042623,0.00051127,0.0,0 STARLINK-5092,1 55408U 23014T   24084.91667824  .00051127  00000-0  42623-2 0  9998,2 55408  70.0012  66.8465 0002969 269.4507 124.5574 14.98322659 64049,6950.216,96.107,574.144,570.017,0.0
55408.0,STARLINK-5092,PAYLOAD,2024-03-25 06:00:00,14.98351468,0.0003048,70.0012,66.0061,276.2591,115.2433,-0.0037593,-0.00044689,0.0,0 STARLINK-5092,1 55408U 23014T   24085.25001157 -.00044689  00000-0 -37593-2 0  9994,2 55408  70.0012  66.0061 0003048 276.2591 115.2433 14.98351468 64097,6950.127,96.106,574.11,569.873,0.0
55408.0,STARLINK-5092,PAYLOAD,2024-03-25 22:00:00,14.98309419,0.0003091,70.0014,64.3253,271.4139,115.0431,0.0038351,0.00045944,0.0,0 STARLINK-5092,1 55408U 23014T   24085.91667824  .00045944  00000-0  38351-2 0  9992,2 55408  70.0014  64.3253 0003091 271.4139 115.0431 14.98309419 64192,6950.257,96.108,574.27,569.973,0.0
55408.0,STARLINK-5092,PAYLOAD,2024-03-26 02:41:23,14.98326514,0.0002814,70.0002,63.8327,270.7987,89.2849,-0.00020999,-2.597e-05,0.0,0 STARLINK-5092,1 55408U 23014T   24086.11207414 -.00002597  00000-0 -20999-3 0  9999,2 55408  70.0002  63.8327 0002814 270.7987  89.2849 14.98326514 64224,6950.204,96.107,574.024,570.113,0.0
55408.0,STARLINK-5092,PAYLOAD,2024-03-26 09:05:54,14.9835349,0.0002319,70.0023,63.1651,233.8611,126.2334,-0.00067299,-8.118e-05,0.0,0 STARLINK-5092,1 55408U 23014T   24086.37910871 -.00008118  00000-0 -67299-3 0  9994,2 55408  70.0023  63.1651 0002319 233.8611 126.2334 14.98353490 64262,6950.12,96.105,573.597,570.374,0.0
55408.0,STARLINK-5092,PAYLOAD,2024-03-27 09:07:55,14.98342814,0.0003011,70.0001,60.6354,273.4902,86.5912,5.5683e-05,5.72e-06,0.0,0 STARLINK-5092,1 55408U 23014T   24087.38049821  .00000572  00000-0  55683-4 0  9993,2 55408  70.0001  60.6354 0003011 273.4902  86.5912 14.98342814 64418,6950.153,96.106,574.111,569.926,0.0
55408.0,STARLINK-5092,PAYLOAD,2024-03-27 21:57:00,14.98322731,0.0002437,70.0014,59.2891,259.9528,100.1356,0.00010277,1.133e-05,0.0,0 STARLINK-5092,1 55408U 23014T   24087.91458916  .00001133  00000-0  10277-3 0  9994,2 55408  70.0014  59.2891 0002437 259.9528 100.1356 14.98322731 65430,6950.215,96.107,573.774,570.387,0.0
55408.0,STARLINK-5092,PAYLOAD,2024-03-28 04:21:32,14.98321958,0.0002521,70.0015,58.6146,262.069,98.0183,0.00011545,1.285e-05,0.0,0 STARLINK-5092,1 55408U 23014T   24088.18163033  .00001285  00000-0  11545-3 0  9994,2 55408  70.0015  58.6146 0002521 262.0690  98.0183 14.98321958 64539,6950.218,96.108,573.835,570.331,0.0
55408.0,STARLINK-5092,PAYLOAD,2024-03-28 07:33:49,14.98320014,0.0002541,70.0017,58.2776,265.772,94.3148,0.00011727,1.306e-05,0.0,0 STARLINK-5092,1 55408U 23014T   24088.31515211  .00001306  00000-0  11727-3 0  9994,2 55408  70.0017  58.2776 0002541 265.7720  94.3148 14.98320014 65490,6950.224,96.108,573.855,570.323,0.0
55408.0,STARLINK-5092,PAYLOAD,2024-03-28 21:59:01,14.98333289,0.0002692,70.0019,56.7627,261.7523,98.3331,9.18e-06,1.7e-07,0.0,0 STARLINK-5092,1 55408U 23014T   24088.91598576  .00000017  00000-0  91800-5 0  9995,2 55408  70.0019  56.7627 0002692 261.7523  98.3331 14.98333289 65580,6950.183,96.107,573.919,570.177,0.0
55408.0,STARLINK-5092,PAYLOAD,2024-03-29 04:23:33,14.98332975,0.0002659,70.0011,56.0901,260.8261,99.2597,-3.1817e-05,-4.73e-06,0.0,0 STARLINK-5092,1 55408U 23014T   24089.18302684 -.00000473  00000-0 -31817-4 0  9997,2 55408  70.0011  56.0901 0002659 260.8261  99.2597 14.98332975 64687,6950.184,96.107,573.897,570.201,0.0
